[{"OBJECT_NAME":"OBJECT K","OBJECT_ID":"2025-155K","EPOCH":"2026-03-09T22:07:25.197888","MEAN_MOTION":15.34284916,"ECCENTRICITY":0.00088839,"INCLINATION":97.4419,"RA_OF_ASC_NODE":38.2399,"ARG_OF_PERICENTER":139.4299,"MEAN_ANOMALY":220.7607,"EPHEMERIS_TYPE":0,"CLASSIFICATION_TYPE":"U","NORAD_CAT_ID":64885,"ELEMENT_SET_NO":999,"REV_AT_EPOCH":6566,"BSTAR":0.00076172732,"MEAN_MOTION_DOT":0.00025288,"MEAN_MOTION_DDOT":0},{"OBJECT_NAME":"STARLINK-35757","OBJECT_ID":"2025-247F","EPOCH":"2026-03-09T14:37:32.414880","MEAN_MOTION":15.30186691,"ECCENTRICITY":0.0001066,"INCLINATION":53.159,"RA_OF_ASC_NODE":191.6556,"ARG_OF_PERICENTER":66.3916,"MEAN_ANOMALY":293.7196,"EPHEMERIS_TYPE":0,"CLASSIFICATION_TYPE":"U","NORAD_CAT_ID":66270,"ELEMENT_SET_NO":999,"REV_AT_EPOCH":2107,"BSTAR":0.00059282,"MEAN_MOTION_DOT":0.00017232,"MEAN_MOTION_DDOT":0}]
